TRANSPORTER-11 OBJECT A 
1 60468U 24149A   26068.74646182  .00010774  00000+0  36054-3 0  9993
2 60468  97.3780 149.0949 0003110 191.0010 169.1164 15.31141332 86830
STARLINK-35232          
1 65518U 25198AC  26068.75553993 -.00027667  00000+0 -92589-3 0  9993
2 65518  53.1592 270.4379 0000993  36.0467 324.0601 15.30185254 28630
