[{"OBJECT_NAME":"TRANSPORTER-11 OBJECT A","OBJECT_ID":"2024-149A","EPOCH":"2026-03-09T17:54:54.302112","MEAN_MOTION":15.31141332,"ECCENTRICITY":0.00031096,"INCLINATION":97.378,"RA_OF_ASC_NODE":149.0949,"ARG_OF_PERICENTER":191.001,"MEAN_ANOMALY":169.1164,"EPHEMERIS_TYPE":0,"CLASSIFICATION_TYPE":"U","NORAD_CAT_ID":60468,"ELEMENT_SET_NO":999,"REV_AT_EPOCH":8683,"BSTAR":0.00036053677,"MEAN_MOTION_DOT":0.00010774,"MEAN_MOTION_DDOT":0},{"OBJECT_NAME":"STARLINK-35232","OBJECT_ID":"2025-198AC","EPOCH":"2026-03-09T18:07:58.649952","MEAN_MOTION":15.30185254,"ECCENTRICITY":9.932e-5,"INCLINATION":53.1592,"RA_OF_ASC_NODE":270.4379,"ARG_OF_PERICENTER":36.0467,"MEAN_ANOMALY":324.0601,"EPHEMERIS_TYPE":0,"CLASSIFICATION_TYPE":"U","NORAD_CAT_ID":65518,"ELEMENT_SET_NO":999,"REV_AT_EPOCH":2863,"BSTAR":-0.00092588612,"MEAN_MOTION_DOT":-0.00027667,"MEAN_MOTION_DDOT":0}]
